STARLINK-36752          
1 67724U 26026D   26178.12410397  .00030554  00000+0  94501-3 0  9991
2 67724  97.2838 231.1274 0000398 129.8276 230.3001 15.33442775 20899
STARLINK-36754          
1 67725U 26026E   26178.12138333  .00023396  00000+0  72496-3 0  9994
2 67725  97.2845 231.1300 0000545 225.0522 135.0677 15.33437000 20890
STARLINK-36755          
1 67726U 26026F   26178.11866657  .00029838  00000+0  92314-3 0  9999
2 67726  97.2846 231.1342 0000233 274.9996  85.1220 15.33437846 20897
STARLINK-36741          
1 67727U 26026G   26178.11594693  .00032564  00000+0  10066-2 0  9991
2 67727  97.2846 231.1384 0001186 116.4467 243.6897 15.33446134 20896
STARLINK-36757          
1 67728U 26026H   26178.11324012  .00023330  00000+0  72255-3 0  9998
2 67728  97.2824 231.1436 0000797   8.7937 351.3319 15.33454142 20897
STARLINK-36751          
1 67729U 26026J   26178.10778256  .00021808  00000+0  67578-3 0  9991
2 67729  97.2836 231.1505 0001066  54.5909 305.5434 15.33450231 20890
STARLINK-36747          
1 67730U 26026K   26178.11050810  .00021944  00000+0  67980-3 0  9991
2 67730  97.2839 231.1471 0001700 101.8169 258.3264 15.33456562 20895
STARLINK-36315          
1 67731U 26026L   26178.10507249  .00032741  00000+0  10122-2 0  9996
2 67731  97.2838 231.1551 0000334  40.8177 319.3090 15.33442414 20893
STARLINK-36260          
1 67732U 26026M   26178.10235060  .00026807  00000+0  82975-3 0  9998
2 67732  97.2841 231.1583 0000466  91.2259 268.9037 15.33445010 20895
STARLINK-36746          
1 67733U 26026N   26178.09963511  .00036310  00000+0  11216-2 0  9995
2 67733  97.2839 231.1570 0000719  87.3041 272.8284 15.33444998 20897
STARLINK-36749          
1 67734U 26026P   26178.09690517  .00023294  00000+0  72138-3 0  9997
2 67734  97.2840 231.1644 0001143  64.7073 295.4288 15.33456748 20899
STARLINK-36691          
1 67735U 26026Q   26178.15671942  .00009248  00000+0  28861-3 0  9993
2 67735  97.2853 231.2369 0001254 118.7531 241.3838 15.33426152 20900
STARLINK-36317          
1 67736U 26026R   26178.15945271  .00024897  00000+0  77116-3 0  9997
2 67736  97.2842 231.2333 0001005  98.4778 261.6578 15.33438120 20905
STARLINK-36330          
1 67737U 26026S   26178.15401371  .00026063  00000+0  80694-3 0  9998
2 67737  97.2845 231.2410 0000551  90.0714 270.0592 15.33441360 20908
STARLINK-36327          
1 67738U 26026T   26178.15129284  .00033176  00000+0  10253-2 0  9995
2 67738  97.2846 231.2456 0001557 128.3053 231.8330 15.33449690 20907
STARLINK-36329          
1 67739U 26026U   26178.13497906  .00024771  00000+0  76731-3 0  9998
2 67739  97.2851 231.2676 0000325 241.5667 118.5543 15.33436473 20901
STARLINK-36737          
1 67740U 26026V   26178.14857566  .00025371  00000+0  78571-3 0  9994
2 67740  97.2847 231.2487 0000962  83.7111 276.4241 15.33439263 20904
STARLINK-36740          
1 67741U 26026W   26178.13771337  .00028103  00000+0  87046-3 0  9998
2 67741  97.2848 231.2629 0000766 118.5327 241.5993 15.33412716 20903
STARLINK-36693          
1 67742U 26026X   26178.14585711  .00024773  00000+0  76725-3 0  9990
2 67742  97.2845 231.2519 0001238  91.7976 268.3408 15.33440507 20903
STARLINK-36717          
1 67743U 26026Y   26178.14040993 -.00001661  00000+0 -49168-4 0  9994
2 67743  97.2848 231.2591 0001749  93.4239 266.7204 15.33429112 20900
STARLINK-36692          
1 67744U 26026Z   26178.14313748  .00023029  00000+0  71367-3 0  9991
2 67744  97.2844 231.2556 0000534  81.8641 278.2663 15.33436322 20905
STARLINK-36800          
1 67797U 26032A   26178.23559476  .00017091  00000+0  53058-3 0  9995
2 67797  97.2860   5.9283 0001811  96.8382 263.3067 15.33441140 21752
STARLINK-36798          
1 67798U 26032B   26178.08605072  .00008407  00000+0  26250-3 0  9998
2 67798  97.2850   5.6728 0001577  88.0957 272.0467 15.33438141 21728
STARLINK-36804          
1 67799U 26032C   26178.10236561  .00006059  00000+0  18989-3 0  9996
2 67799  97.2855   5.6527 0001711  96.0456 264.0982 15.33436737 21726
STARLINK-36354          
1 67800U 26032D   26178.09148902  .00016191  00000+0  50285-3 0  9991
2 67800  97.2856   5.6677 0001612  97.8106 262.3320 15.33440426 21724
STARLINK-36773          
1 67801U 26032E   26178.09964593  .00012173  00000+0  37883-3 0  9999
2 67801  97.2856   5.6560 0001439  89.1216 271.0192 15.33441336 21724
STARLINK-36739          
1 67802U 26032F   26178.27093914  .00018648  00000+0  57847-3 0  9995
2 67802  97.2851   5.8829 0001155  94.8716 265.2659 15.33447953 21750
STARLINK-36768          
1 67803U 26032G   26178.09423137  .00028556  00000+0  88382-3 0  9997
2 67803  97.2856   5.6639 0001464  88.8567 271.2843 15.33433320 21725
STARLINK-36792          
1 67804U 26032H   26178.09692728  .00010337  00000+0  32213-3 0  9992
2 67804  97.2856   5.6595 0001207  93.0865 267.0516 15.33439033 21728
STARLINK-36782          
1 67805U 26032J   26178.05886375  .00017233  00000+0  53498-3 0  9992
2 67805  97.2863   5.7131 0001889  93.6649 266.4810 15.33439725 21724
