OBJECT_NAME,OBJECT_ID,EPOCH,MEAN_MOTION,ECCENTRICITY,INCLINATION,RA_OF_ASC_NODE,ARG_OF_PERICENTER,MEAN_ANOMALY,EPHEMERIS_TYPE,CLASSIFICATION_TYPE,NORAD_CAT_ID,ELEMENT_SET_NO,REV_AT_EPOCH,BSTAR,MEAN_MOTION_DOT,MEAN_MOTION_DDOT
STARLINK-36752,2026-026D,2026-06-27T02:58:42.583008,15.33442775,.0000398,97.2838,231.1274,129.8276,230.3001,0,U,67724,999,2089,.945006E-3,.30554E-3,0
STARLINK-36754,2026-026E,2026-06-27T02:54:47.519712,15.33437000,.00005451,97.2845,231.1300,225.0522,135.0677,0,U,67725,999,2089,.72496018E-3,.23396E-3,0
STARLINK-36755,2026-026F,2026-06-27T02:50:52.791648,15.33437846,.00002338,97.2846,231.1342,274.9996,85.1220,0,U,67726,999,2089,.92314331E-3,.29838E-3,0
STARLINK-36741,2026-026G,2026-06-27T02:46:57.814752,15.33446134,.00011869,97.2846,231.1384,116.4467,243.6897,0,U,67727,999,2089,.10066107E-2,.32564E-3,0
STARLINK-36757,2026-026H,2026-06-27T02:43:03.946368,15.33454142,.00007973,97.2824,231.1436,8.7937,351.3319,0,U,67728,999,2089,.72255148E-3,.2333E-3,0
STARLINK-36751,2026-026J,2026-06-27T02:35:12.413184,15.33450231,.00010668,97.2836,231.1505,54.5909,305.5434,0,U,67729,999,2089,.67577985E-3,.21808E-3,0
STARLINK-36747,2026-026K,2026-06-27T02:39:07.899840,15.33456562,.00017,97.2839,231.1471,101.8169,258.3264,0,U,67730,999,2089,.6798046E-3,.21944E-3,0
STARLINK-36315,2026-026L,2026-06-27T02:31:18.263136,15.33442414,.00003343,97.2838,231.1551,40.8177,319.3090,0,U,67731,999,2089,.10121776E-2,.32741E-3,0
STARLINK-36260,2026-026M,2026-06-27T02:27:23.091840,15.33445010,.00004668,97.2841,231.1583,91.2259,268.9037,0,U,67732,999,2089,.82974781E-3,.26807E-3,0
STARLINK-36746,2026-026N,2026-06-27T02:23:28.473504,15.33444998,.0000719,97.2839,231.1570,87.3041,272.8284,0,U,67733,999,2089,.11216467E-2,.3631E-3,0
STARLINK-36749,2026-026P,2026-06-27T02:19:32.606688,15.33456748,.00011437,97.2840,231.1644,64.7073,295.4288,0,U,67734,999,2089,.72137726E-3,.23294E-3,0
STARLINK-36691,2026-026Q,2026-06-27T03:45:40.557888,15.33426152,.00012546,97.2853,231.2369,118.7531,241.3838,0,U,67735,999,2090,.2886113E-3,.9248E-4,0
STARLINK-36317,2026-026R,2026-06-27T03:49:36.714144,15.33438120,.00010056,97.2842,231.2333,98.4778,261.6578,0,U,67736,999,2090,.77115848E-3,.24897E-3,0
STARLINK-36330,2026-026S,2026-06-27T03:41:46.784544,15.33441360,.00005512,97.2845,231.2410,90.0714,270.0592,0,U,67737,999,2090,.80693758E-3,.26063E-3,0
STARLINK-36327,2026-026T,2026-06-27T03:37:51.701376,15.33449690,.00015577,97.2846,231.2456,128.3053,231.8330,0,U,67738,999,2090,.10252906E-2,.33176E-3,0
STARLINK-36329,2026-026U,2026-06-27T03:14:22.190784,15.33436473,.00003256,97.2851,231.2676,241.5667,118.5543,0,U,67739,999,2090,.76730659E-3,.24771E-3,0
STARLINK-36737,2026-026V,2026-06-27T03:33:56.937024,15.33439263,.00009629,97.2847,231.2487,83.7111,276.4241,0,U,67740,999,2090,.78570705E-3,.25371E-3,0
STARLINK-36740,2026-026W,2026-06-27T03:18:18.435168,15.33412716,.00007668,97.2848,231.2629,118.5327,241.5993,0,U,67741,999,2090,.87046178E-3,.28103E-3,0
STARLINK-36693,2026-026X,2026-06-27T03:30:02.054304,15.33440507,.00012387,97.2845,231.2519,91.7976,268.3408,0,U,67742,999,2090,.76725157E-3,.24773E-3,0
STARLINK-36717,2026-026Y,2026-06-27T03:22:11.417952,15.33429112,.00017494,97.2848,231.2591,93.4239,266.7204,0,U,67743,999,2090,-.4916793E-4,-.1661E-4,0
STARLINK-36692,2026-026Z,2026-06-27T03:26:07.078272,15.33436322,.00005345,97.2844,231.2556,81.8641,278.2663,0,U,67744,999,2090,.71366814E-3,.23029E-3,0
STARLINK-36800,2026-032A,2026-06-27T05:39:15.387264,15.33441140,.00018115,97.2860,5.9283,96.8382,263.3067,0,U,67797,999,2175,.53057868E-3,.17091E-3,0
STARLINK-36798,2026-032B,2026-06-27T02:03:54.782208,15.33438141,.00015771,97.2850,5.6728,88.0957,272.0467,0,U,67798,999,2172,.26250458E-3,.8407E-4,0
STARLINK-36804,2026-032C,2026-06-27T02:27:24.388704,15.33436737,.00017112,97.2855,5.6527,96.0456,264.0982,0,U,67799,999,2172,.1898937E-3,.6059E-4,0
STARLINK-36354,2026-032D,2026-06-27T02:11:44.651328,15.33440426,.00016126,97.2856,5.6677,97.8106,262.3320,0,U,67800,999,2172,.50284598E-3,.16191E-3,0
STARLINK-36773,2026-032E,2026-06-27T02:23:29.408352,15.33441336,.00014399,97.2856,5.6560,89.1216,271.0192,0,U,67801,999,2172,.37883259E-3,.12173E-3,0
STARLINK-36739,2026-032F,2026-06-27T06:30:09.141696,15.33447953,.00011554,97.2851,5.8829,94.8716,265.2659,0,U,67802,999,2175,.57847426E-3,.18648E-3,0
STARLINK-36768,2026-032G,2026-06-27T02:15:41.590368,15.33433320,.00014643,97.2856,5.6639,88.8567,271.2843,0,U,67803,999,2172,.88381948E-3,.28556E-3,0
STARLINK-36792,2026-032H,2026-06-27T02:19:34.516992,15.33439033,.00012077,97.2856,5.6595,93.0865,267.0516,0,U,67804,999,2172,.32212561E-3,.10337E-3,0
STARLINK-36782,2026-032J,2026-06-27T01:24:45.828000,15.33439725,.00018892,97.2863,5.7131,93.6649,266.4810,0,U,67805,999,2172,.53497939E-3,.17233E-3,0
